NIMIQ 2                 
1 27632U 02062A   26115.90176613 -.00000078  00000+0  00000+0 0  9992
2 27632   9.3288  57.4432 0006320 333.7121  38.2272  1.00272320 43668
ANIK F2                 
1 28378U 04027A   26115.90159280 -.00000060  00000+0  00000+0 0  9995
2 28378   3.1531  80.1202 0004302 332.0889  15.1434  1.00271375 40736
ANIK F1R                
1 28868U 05036A   26115.90237280 -.00000085  00000+0  00000+0 0  9994
2 28868   4.1812  77.2084 0003381 330.1665  24.1112  1.00272055 45920
ANIK F3                 
1 31102U 07009A   26115.90011946 -.00000014  00000+0  00000+0 0  9992
2 31102   1.0639  84.4008 0002700 307.4191  27.4187  1.00272059 46034
NIMIQ 4                 
1 33373U 08044A   26115.86780985 -.00000234  00000+0  00000+0 0  9999
2 33373   0.0073 279.9811 0002226 109.7942  54.5337  1.00271560 64450
TELSTAR 11N             
1 34111U 09009A   26115.91615285  .00000000  00000+0  00000+0 0  9998
2 34111   0.0133 230.5627 0002559 152.2382 123.3873  1.00267441 45728
TERRESTAR-1             
1 35496U 09035A   26115.60374433 -.00000067  00000+0  00000+0 0  9991
2 35496   5.1491  48.8070 0002957 347.0409 284.1124  1.00272151 61600
NIMIQ 5                 
1 35873U 09050A   26115.86780985  .00000000  00000+0  00000+0 0  9994
2 35873   0.0218 108.1624 0003010 295.8677  49.5663  1.00268867 60826
SKYTERRA 1              
1 37218U 10061A   26115.90349947 -.00000128  00000+0  00000+0 0  9999
2 37218   5.0170  50.8823 0003068  23.9028   3.0522  1.00271521 56678
TELSTAR 14R             
1 37602U 11021A   26115.91112617 -.00000293  00000+0  00000+0 0  9999
2 37602   0.0185 258.8051 0002259 129.8537  90.2520  1.00271756 55317
NIMIQ 6                 
1 38342U 12026A   26115.87336475 -.00000187  00000+0  00000+0 0  9994
2 38342   0.0622  75.8877 0002522 313.0103  48.2946  1.00271827 49886
ANIK G1                 
1 39127U 13014A   26115.90237280  .00000000  00000+0  00000+0 0  9995
2 39127   0.0232 107.2533 0002189 268.6937  55.5217  1.00269303 47722
TELSTAR 12V             
1 41036U 15068A   26115.92065954 -.00000132  00000+0  00000+0 0  9994
2 41036   0.0070 211.9089 0002452 177.3915 141.0687  1.00271627 38104
VIASAT-2                
1 42740U 17029A   26115.90973949 -.00000279  00000+0  00000+0 0  9998
2 42740   0.0161 267.5438 0000281  95.1612 108.8238  1.00271492 32682
LEO 1 (LEO VANTAGE 1)   
1 43113U 18004C   26115.75427414  .00001669  00000+0  12187-3 0  9997
2 43113  99.2450  27.2062 0350178 240.3062 116.2858 14.67560438429799
TELSTAR 19V             
1 43562U 18059A   26115.91112617 -.00000293  00000+0  00000+0 0  9999
2 43562   0.0190 192.6144 0001607 252.3679  33.9385  1.00270877 28628
TELSTAR 18V             
1 43611U 18069A   26115.95090633 -.00000307  00000+0  00000+0 0  9998
2 43611   0.0136 265.8313 0002001 117.2370 311.2180  1.00271456 28113
